{
  "norad_id": 38775,
  "name": "BEIDOU-2 M6",
  "history": [
    {
      "epoch": "2026-03-23T23:47:57.952608Z",
      "apogee_km": 21568.09563350591,
      "perigee_km": 21488.0522486636,
      "latitude_deg": 1.4615938530517268e-06,
      "longitude_deg": -112.775003946439,
      "height_km": 21489.93203160177,
      "semi_major_axis_km": 27906.210941084755,
      "eccentricity": 0.00143415,
      "inclination_deg": 56.4716,
      "raan_deg": 65.7096,
      "arg_perigee_deg": 343.8806,
      "mean_anomaly_deg": 16.067,
      "mean_motion_rev_day": 1.86230776
    }
  ]
}